NORAD_CAT_ID,OBJECT_NAME,OBJECT_TYPE,EPOCH,MEAN_MOTION,ECCENTRICITY,INCLINATION,RA_OF_ASC_NODE,ARG_OF_PERICENTER,MEAN_ANOMALY,BSTAR,MEAN_MOTION_DOT,MEAN_MOTION_DDOT,TLE_LINE0,TLE_LINE1,TLE_LINE2,SEMIMAJOR_AXIS,PERIOD,APOGEE,PERIGEE,DECAYED
51148.0,STARLINK-3359,PAYLOAD,2024-04-01 10:52:14,15.08829456,0.0001277,53.216,244.2331,93.112,267.0018,-8.9136e-05,-1.706e-05,0.0,0 STARLINK-3359,1 51148U 22005AW  24092.45294841 -.00001706  00000-0 -89136-4 0  9999,2 51148  53.2160 244.2331 0001277  93.1120 267.0018 15.08829456122939,6917.913,95.438,540.661,538.894,0.0
51148.0,STARLINK-3359,PAYLOAD,2024-04-01 14:03:01,15.08830896,0.0001214,53.2162,243.6392,94.0238,266.0893,-5.858e-05,-1.22e-05,0.0,0 STARLINK-3359,1 51148U 22005AW  24092.58542845 -.00001220  00000-0 -58580-4 0  9993,2 51148  53.2162 243.6392 0001214  94.0238 266.0893 15.08830896121841,6917.908,95.438,540.613,538.933,0.0
51148.0,STARLINK-3359,PAYLOAD,2024-04-01 20:24:33,15.0884062,0.000132,53.2183,242.448,99.4975,260.6166,5.651e-05,6.12e-06,0.0,0 STARLINK-3359,1 51148U 22005AW  24092.85038474  .00000612  00000-0  56510-4 0  9994,2 51148  53.2183 242.4480 0001320  99.4975 260.6166 15.08840620122990,6917.878,95.438,540.657,538.83,0.0
51148.0,STARLINK-3359,PAYLOAD,2024-04-02 02:46:06,15.08836232,0.0001533,53.2184,241.2598,97.8294,262.2872,0.00012572,1.713e-05,0.0,0 STARLINK-3359,1 51148U 22005AW  24093.11534836  .00001713  00000-0  12572-3 0  9999,2 51148  53.2184 241.2598 0001533  97.8294 262.2872 15.08836232121928,6917.892,95.438,540.817,538.696,0.0
51148.0,STARLINK-3359,PAYLOAD,2024-04-02 20:15:20,15.08845037,0.0001252,53.2167,237.9867,85.7184,274.3952,0.00016856,2.396e-05,0.0,0 STARLINK-3359,1 51148U 22005AW  24093.84398453  .00002396  00000-0  16856-3 0  9999,2 51148  53.2167 237.9867 0001252  85.7184 274.3952 15.08845037122031,6917.865,95.437,540.596,538.864,0.0
51148.0,STARLINK-3359,PAYLOAD,2024-04-03 02:36:53,15.08839067,0.000131,53.2172,236.7976,86.661,273.4532,7.6583e-05,9.31e-06,0.0,0 STARLINK-3359,1 51148U 22005AW  24094.10894819  .00000931  00000-0  76583-4 0  9993,2 51148  53.2172 236.7976 0001310  86.6610 273.4532 15.08839067123181,6917.883,95.438,540.654,538.842,0.0
51148.0,STARLINK-3359,PAYLOAD,2024-04-03 16:55:21,15.08841337,0.0001264,53.217,234.1195,84.0098,276.1038,0.00010649,1.407e-05,0.0,0 STARLINK-3359,1 51148U 22005AW  24094.70511023  .00001407  00000-0  10649-3 0  9991,2 51148  53.2170 234.1195 0001264  84.0098 276.1038 15.08841337122165,6917.876,95.437,540.616,538.867,0.0
51148.0,STARLINK-3359,PAYLOAD,2024-04-04 13:35:22,15.08841028,0.0001332,53.2167,230.256,88.4708,271.6436,9.2202e-05,1.18e-05,0.0,0 STARLINK-3359,1 51148U 22005AW  24095.56623043  .00001180  00000-0  92202-4 0  9996,2 51148  53.2167 230.2560 0001332  88.4708 271.6436 15.08841028123403,6917.877,95.437,540.664,538.821,0.0
51148.0,STARLINK-3359,PAYLOAD,2024-04-04 15:10:45,15.08841579,0.0001191,53.2153,229.9586,89.8109,270.302,0.00010503,1.384e-05,0.0,0 STARLINK-3359,1 51148U 22005AW  24095.63246933  .00001384  00000-0  10503-3 0  9992,2 51148  53.2153 229.9586 0001191  89.8109 270.3020 15.08841579122308,6917.876,95.437,540.564,538.917,0.0
51148.0,STARLINK-3359,PAYLOAD,2024-04-05 15:01:31,15.08844889,0.0001115,53.2164,225.4965,91.1234,268.9885,0.00014887,2.083e-05,0.0,0 STARLINK-3359,1 51148U 22005AW  24096.62606350  .00002083  00000-0  14887-3 0  9991,2 51148  53.2164 225.4965 0001115  91.1234 268.9885 15.08844889122458,6917.865,95.437,540.502,538.959,0.0
51148.0,STARLINK-3359,PAYLOAD,2024-04-06 08:30:46,15.08839079,0.0001403,53.2198,222.2265,95.9317,264.1835,6.5316e-05,7.52e-06,0.0,0 STARLINK-3359,1 51148U 22005AW  24097.35470716  .00000752  00000-0  65316-4 0  9992,2 51148  53.2198 222.2265 0001403  95.9317 264.1835 15.08839079123670,6917.883,95.438,540.719,538.778,0.0
51148.0,STARLINK-3359,PAYLOAD,2024-04-06 14:52:19,15.08839258,0.0001279,53.2196,221.0376,94.1341,265.9797,7.8345e-05,9.59e-06,0.0,0 STARLINK-3359,1 51148U 22005AW  24097.61966687  .00000959  00000-0  78345-4 0  9993,2 51148  53.2196 221.0376 0001279  94.1341 265.9797 15.08839258122604,6917.883,95.438,540.632,538.863,0.0
51148.0,STARLINK-3359,PAYLOAD,2024-04-07 08:21:34,15.08840404,0.0001851,53.2198,217.7668,87.5399,272.5805,-9.6238e-05,-1.819e-05,0.0,0 STARLINK-3359,1 51148U 22005AW  24098.34831332 -.00001819  00000-0 -96238-4 0  9991,2 51148  53.2198 217.7668 0001851  87.5399 272.5805 15.08840404122718,6917.879,95.438,541.025,538.464,0.0
51148.0,STARLINK-3359,PAYLOAD,2024-04-07 14:43:06,15.08837753,0.0001379,53.217,216.5761,92.446,267.669,5.4573e-06,-2.01e-06,0.0,0 STARLINK-3359,1 51148U 22005AW  24098.61327148 -.00000201  00000-0  54573-5 0  9996,2 51148  53.2170 216.5761 0001379  92.4460 267.6690 15.08837753123865,6917.887,95.438,540.706,538.798,0.0
51148.0,STARLINK-3359,PAYLOAD,2024-04-08 08:12:21,15.08824505,0.0001212,53.2169,213.3051,94.9073,265.2057,0.00024663,3.638e-05,0.0,0 STARLINK-3359,1 51148U 22005AW  24099.34191601  .00003638  00000-0  24663-3 0  9991,2 51148  53.2169 213.3051 0001212  94.9073 265.2057 15.08824505123977,6917.928,95.439,540.631,538.954,0.0
51148.0,STARLINK-3359,PAYLOAD,2024-04-08 14:33:53,15.0884318,0.0001369,53.2183,212.1157,93.3968,266.7181,0.00017103,2.435e-05,0.0,0 STARLINK-3359,1 51148U 22005AW  24099.60686715  .00002435  00000-0  17103-3 0  9990,2 51148  53.2183 212.1157 0001369  93.3968 266.7181 15.08843180122902,6917.871,95.437,540.683,538.789,0.0
51148.0,STARLINK-3359,PAYLOAD,2024-04-09 00:06:11,15.08854281,0.0001159,53.217,210.3338,95.9787,264.1337,-6.5363e-06,-3.92e-06,0.0,0 STARLINK-3359,1 51148U 22005AW  24100.00430278 -.00000392  00000-0 -65363-5 0  9993,2 51148  53.2170 210.3338 0001159  95.9787 264.1337 15.08854281122968,6917.837,95.437,540.504,538.9,0.0
51148.0,STARLINK-3359,PAYLOAD,2024-04-09 14:24:41,15.08833428,0.0001387,53.2171,207.6566,95.7291,264.3859,6.8709e-05,8.06e-06,0.0,0 STARLINK-3359,1 51148U 22005AW  24100.60047802  .00000806  00000-0  68709-4 0  9990,2 51148  53.2171 207.6566 0001387  95.7291 264.3859 15.08833428123054,6917.9,95.438,540.725,538.806,0.0
51148.0,STARLINK-3359,PAYLOAD,2024-04-09 17:35:27,15.08832756,0.0001483,53.2158,207.0607,96.9977,263.1184,0.00012807,1.75e-05,0.0,0 STARLINK-3359,1 51148U 22005AW  24100.73295766  .00001750  00000-0  12807-3 0  9994,2 51148  53.2158 207.0607 0001483  96.9977 263.1184 15.08832756124186,6917.903,95.438,540.793,538.742,0.0
51148.0,STARLINK-3359,PAYLOAD,2024-04-09 23:57:01,15.08808363,0.0001564,53.2155,205.8717,87.2346,272.8825,0.00035852,5.418e-05,0.0,0 STARLINK-3359,1 51148U 22005AW  24100.99793020  .00005418  00000-0  35852-3 0  9998,2 51148  53.2155 205.8717 0001564  87.2346 272.8825 15.08808363124225,6917.977,95.44,540.924,538.76,0.0
51148.0,STARLINK-3359,PAYLOAD,2024-04-10 06:18:33,15.08829341,0.0001615,53.2156,204.6817,91.6604,268.4573,4.784e-05,4.73e-06,0.0,0 STARLINK-3359,1 51148U 22005AW  24101.26288371  .00000473  00000-0  47840-4 0  9994,2 51148  53.2156 204.6817 0001615  91.6604 268.4573 15.08829341124261,6917.913,95.438,540.895,538.661,0.0
51148.0,STARLINK-3359,PAYLOAD,2024-04-10 23:47:46,15.08843769,0.0001096,53.2126,201.4101,84.9241,275.1876,-3.641e-05,-8.67e-06,0.0,0 STARLINK-3359,1 51148U 22005AW  24101.99151612 -.00000867  00000-0 -36410-4 0  9991,2 51148  53.2126 201.4101 0001096  84.9241 275.1876 15.08843769124377,6917.869,95.437,540.492,538.976,0.0
51148.0,STARLINK-3359,PAYLOAD,2024-04-11 14:06:14,15.08845969,0.0001514,53.2169,198.7342,87.3035,272.8131,0.00023646,3.478e-05,0.0,0 STARLINK-3359,1 51148U 22005AW  24102.58766925  .00003478  00000-0  23646-3 0  9991,2 51148  53.2169 198.7342 0001514  87.3035 272.8131 15.08845969123351,6917.862,95.437,540.775,538.68,0.0
51148.0,STARLINK-3359,PAYLOAD,2024-04-12 12:21:39,15.08840585,0.0001394,53.219,194.5739,87.1317,272.9834,6.3519e-05,7.23e-06,0.0,0 STARLINK-3359,1 51148U 22005AW  24103.51503893  .00000723  00000-0  63519-4 0  9992,2 51148  53.2190 194.5739 0001394  87.1317 272.9834 15.08840585124605,6917.879,95.438,540.708,538.779,0.0
51148.0,STARLINK-3359,PAYLOAD,2024-04-13 12:12:25,15.0884647,0.0001548,53.2191,190.1135,91.8959,268.221,6.283e-05,7.12e-06,0.0,0 STARLINK-3359,1 51148U 22005AW  24104.50863402  .00000712  00000-0  62830-4 0  9990,2 51148  53.2191 190.1135 0001548  91.8959 268.2210 15.08846470123641,6917.861,95.437,540.796,538.655,0.0
51148.0,STARLINK-3359,PAYLOAD,2024-04-14 12:03:12,15.08844528,0.0001593,53.2188,185.6533,92.5451,267.5723,9.513e-05,1.226e-05,0.0,0 STARLINK-3359,1 51148U 22005AW  24105.50223374  .00001226  00000-0  95130-4 0  9999,2 51148  53.2188 185.6533 0001593  92.5451 267.5723 15.08844528124906,6917.867,95.437,540.834,538.63,0.0
51148.0,STARLINK-3359,PAYLOAD,2024-04-15 10:18:36,15.0884373,0.0001586,53.2183,181.4901,95.0184,265.0989,6.6962e-05,7.78e-06,0.0,0 STARLINK-3359,1 51148U 22005AW  24106.42959363  .00000778  00000-0  66962-4 0  9997,2 51148  53.2183 181.4901 0001586  95.0184 265.0989 15.08843730123930,6917.869,95.437,540.831,538.637,0.0
51148.0,STARLINK-3359,PAYLOAD,2024-04-16 05:23:14,15.08839505,0.000183,53.2189,177.9223,104.7354,255.3841,4.1117e-05,3.66e-06,0.0,0 STARLINK-3359,1 51148U 22005AW  24107.22447737  .00000366  00000-0  41117-4 0  9991,2 51148  53.2189 177.9223 0001830 104.7354 255.3841 15.08839505125163,6917.882,95.438,541.013,538.481,0.0
51148.0,STARLINK-3359,PAYLOAD,2024-04-16 11:44:46,15.08848338,0.0001534,53.2178,176.7327,93.6043,266.5125,0.00011651,1.567e-05,0.0,0 STARLINK-3359,1 51148U 22005AW  24107.48943028  .00001567  00000-0  11651-3 0  9996,2 51148  53.2178 176.7327 0001534  93.6043 266.5125 15.08848338125203,6917.855,95.437,540.781,538.659,0.0
51148.0,STARLINK-3359,PAYLOAD,2024-04-17 05:14:01,15.08846647,0.000157,53.2177,173.4633,100.2089,259.9081,3.0476e-05,1.97e-06,0.0,0 STARLINK-3359,1 51148U 22005AW  24108.21807344  .00000197  00000-0  30476-4 0  9993,2 51148  53.2177 173.4633 0001570 100.2089 259.9081 15.08846647125311,6917.86,95.437,540.811,538.639,0.0
